OBJECT_NAME,OBJECT_ID,EPOCH,MEAN_MOTION,ECCENTRICITY,INCLINATION,RA_OF_ASC_NODE,ARG_OF_PERICENTER,MEAN_ANOMALY,EPHEMERIS_TYPE,CLASSIFICATION_TYPE,NORAD_CAT_ID,ELEMENT_SET_NO,REV_AT_EPOCH,BSTAR,MEAN_MOTION_DOT,MEAN_MOTION_DDOT
COSMOS 2534 (758),2019-030A,2026-06-27T07:48:11.380608,2.13102451,.00135629,64.3693,192.2752,275.0761,81.5437,0,U,44299,999,5513,0,.1E-5,0
BEIDOU-3 IGSO-2 (C39),2019-035A,2026-06-29T14:45:57.574944,1.00262956,.0039563,55.2496,158.7537,216.3082,243.4006,0,U,44337,999,2579,0,-.94E-6,0
GPS BIII-2  (PRN 18),2019-056A,2026-06-29T08:40:26.031360,2.00570210,.0062613,55.6308,330.6592,197.7564,340.3084,0,U,44506,999,5031,0,-.95E-6,0
BEIDOU-3 M24 (C46),2019-061A,2026-06-28T12:26:37.216320,1.86229281,.00085409,54.3968,182.3453,358.6533,1.3666,0,U,44542,999,4600,0,.79E-6,0
BEIDOU-3 M23 (C45),2019-061B,2026-06-28T23:33:01.963008,1.86227665,.0005837,54.3959,182.2982,339.0191,242.7984,0,U,44543,999,4601,0,.76E-6,0
EUTELSAT 5 WEST B (EGNOS/PRN 121),2019-067A,2026-06-29T08:57:55.804320,1.00271597,.0003472,0.0628,347.6880,109.6348,309.6099,0,U,44624,999,2455,0,-.31E-6,0
BEIDOU-3 M22 (C44),2019-078A,2026-06-28T08:36:12.538944,1.86227483,.00062953,53.9250,299.4342,52.2108,307.8484,0,U,44793,999,4485,0,-.84E-6,0
BEIDOU-3 M21 (C43),2019-078B,2026-06-27T23:04:25.677120,1.86227959,.00039786,53.8982,299.4091,49.1157,310.9195,0,U,44794,999,4485,0,-.87E-6,0
COSMOS 2544 (759),2019-088A,2026-06-25T22:41:15.294624,2.13102928,.00129231,65.5707,73.4383,257.6247,102.2670,0,U,44850,999,5090,0,-.63E-6,0
BEIDOU-3 M19 (C41),2019-090A,2026-06-28T08:25:52.308768,1.86231816,.00174253,56.5682,62.4212,297.4344,161.4191,0,U,44864,999,4444,0,-.67E-6,0
BEIDOU-3 M20 (C42),2019-090B,2026-06-29T09:50:57.937056,1.86231898,.0015172,56.5707,62.4211,311.8095,226.6993,0,U,44865,999,4444,0,-.56E-6,0
BEIDOU-3 G2 (C60),2020-017A,2026-06-29T12:47:38.382432,1.00271960,.0002605,2.8886,47.5319,42.0980,99.9885,0,U,45344,999,2338,0,-.132E-5,0
COSMOS 2545 (760),2020-018A,2026-06-28T22:56:25.336320,2.13102693,.0008835,64.3473,312.0049,229.6158,130.2998,0,U,45358,999,4891,0,-.71E-6,0
BEIDOU-3 G3 (C61),2020-040A,2026-06-29T12:56:16.436832,1.00273361,.0002577,2.4770,67.4762,331.6872,183.0831,0,U,45807,999,2219,0,-.345E-5,0
GPS BIII-3  (PRN 23),2020-041A,2026-06-29T08:43:22.029024,2.00558844,.0065346,56.6709,28.4721,204.0154,273.4058,0,U,45854,999,4428,0,-.69E-6,0
GALAXY 30 (WAAS/PRN 135),2020-056C,2026-06-29T11:33:38.561184,1.00272508,.0002274,0.0189,20.1116,74.9517,230.8958,0,U,46114,999,2141,0,.48E-6,0
COSMOS 2547 (705K),2020-075A,2026-06-27T06:26:33.349920,2.13100208,.00094051,64.6001,192.1390,239.7377,120.2212,0,U,46805,999,4412,0,.101E-5,0
GPS BIII-4  (PRN 14),2020-078A,2026-06-29T05:44:38.653728,2.00565188,.0073938,53.9788,210.2896,207.5308,157.0262,0,U,46826,999,4175,0,.75E-6,0
GPS BIII-5  (PRN 11),2021-054A,2026-06-28T17:29:34.169280,2.00568605,.0025783,55.1686,331.9958,228.3278,313.9526,0,U,48859,999,3698,0,-.98E-6,0
QZS-1R (QZSS/PRN 196),2021-096A,2026-06-26T14:51:13.875840,1.00253032,.0755635,37.4804,79.4425,271.9684,279.4688,0,U,49336,999,1710,0,-.312E-5,0
GSAT0223 (GALILEO 27),2021-116A,2026-06-27T12:56:14.335584,1.70476510,.00016938,57.1576,341.3951,183.6278,169.3776,0,U,49809,999,2835,0,-.93E-6,0
GSAT0224 (GALILEO 28),2021-116B,2026-06-27T08:47:14.876160,1.70476529,.00014188,57.1577,341.3987,161.6476,197.8652,0,U,49810,999,2837,0,-.94E-6,0
COSMOS 2557 (706K),2022-075A,2026-06-27T10:23:01.392000,2.13102281,.00103244,64.2922,314.1237,273.3478,86.5234,0,U,52984,999,3093,0,-.82E-6,0
COSMOS 2559 (707K),2022-130A,2026-06-27T17:19:03.381888,2.13101825,.0012766,64.2645,314.1973,179.1655,180.8266,0,U,54031,999,2891,0,-.81E-6,0
COSMOS 2564 (761),2022-161A,2026-06-27T13:33:19.590912,2.13102113,.00122573,64.7427,192.3671,225.0587,134.8937,0,U,54377,999,2785,0,.99E-6,0
GPS BIII-6  (PRN 28),2023-009A,2026-06-27T22:18:56.418624,2.00570960,.00062636,55.1241,148.0967,317.3274,46.4275,0,U,55268,999,2546,0,.27E-6,0
BEIDOU-3 G4 (C62),2023-066A,2026-06-29T13:04:43.349088,1.00270148,.0004938,0.4735,334.5980,175.4889,103.7638,0,U,56564,999,1151,0,-.27E-5,0
NVS-01 (IRNSS-1J),2023-076A,2026-06-29T13:12:38.727072,1.00273540,.000282,2.1380,243.7873,10.2064,351.3640,0,U,56759,999,1124,0,-.323E-5,0
COSMOS 2569 (703K),2023-114A,2026-06-28T12:22:31.033344,2.13103866,.00102622,65.3084,72.2385,296.5963,63.3487,0,U,57517,999,2250,0,-.38E-6,0
BEIDOU-3 M28 (C50),2023-207A,2026-06-29T02:41:49.545600,1.86229916,.000291,55.7632,61.9007,353.7174,6.3357,0,U,58654,999,1706,0,-.61E-6,0
BEIDOU-3 M26 (C48),2023-207B,2026-06-28T08:56:59.824896,1.86229888,.00025895,55.7647,61.9122,322.9060,37.1290,0,U,58655,999,1703,0,-.68E-6,0
